[ {"name": "STARLINK-35855", "line1": "1 66891U 25283P   26128.18388419 -.00013420  00000+0 -44171-3 0  9992", "line2": "2 66891  53.1591 107.7716 0001545  52.0631 308.0509 15.30203895 24958"}, {"name": "STARLINK-35883", "line1": "1 66892U 25283Q   26128.18072125  .00011681  00000+0  40577-3 0  9998", "line2": "2 66892  53.1585 107.7549 0001370  91.3305 268.7852 15.30210631 24955"}, {"name": "STARLINK-36033", "line1": "1 66893U 25283R   26128.15761414  .00023945  00000+0  81832-3 0  9997", "line2": "2 66893  53.1580 108.3219 0000602 134.6534 225.4516 15.30186317 24943"}, {"name": "STARLINK-35718", "line1": "1 66894U 25283S   26128.17439823  .00007389  00000+0  26112-3 0  9990", "line2": "2 66894  53.1577 107.7172 0001305  87.7503 272.3647 15.30228145 24959"}, {"name": "STARLINK-35971", "line1": "1 66895U 25283T   26128.21237714  .00013603  00000+0  47041-3 0  9991", "line2": "2 66895  53.1593 107.9501 0001006  86.3397 273.7719 15.30210458 24953"}, {"name": "STARLINK-35791", "line1": "1 66896U 25283U   26128.16383573  .00026236  00000+0  89429-3 0  9993", "line2": "2 66896  53.1576 107.6496 0000936  98.8920 261.2186 15.30219156 24950"}, {"name": "STARLINK-36079", "line1": "1 66897U 25283V   26128.20604113  .00000553  00000+0  30807-4 0  9996", "line2": "2 66897  53.1606 107.9095 0001433  89.8759 270.2406 15.30206575 24941"}, {"name": "STARLINK-36065", "line1": "1 66898U 25283W   26128.16668980 -.00008925  00000+0 -26027-3 0  9995", "line2": "2 66898  53.1609 107.9941 0001656  83.7418 110.4506 15.33558807  5864"}, {"name": "STARLINK-36064", "line1": "1 66899U 25283X   26128.20174104  .00215639  00000+0  70049-2 0  9993", "line2": "2 66899  53.1601 107.8827 0002216 150.8719 209.2406 15.30564213 24954"}, {"name": "STARLINK-36074", "line1": "1 66900U 25283Y   26128.19866135  .00008406  00000+0  29555-3 0  9995", "line2": "2 66900  53.1605 107.8656 0001384  74.2390 285.8764 15.30206955 24953"}, {"name": "STARLINK-36043", "line1": "1 66901U 25283Z   26128.19232843  .00011886  00000+0  41271-3 0  9994", "line2": "2 66901  53.1597 107.8234 0001154 101.2641 258.8490 15.30206951 24953"}, {"name": "STARLINK-35983", "line1": "1 66902U 25283AA  26128.18915550  .00013468  00000+0  46592-3 0  9996", "line2": "2 66902  53.1597 107.8042 0002610 148.8878 211.2278 15.30206592 24956"}, {"name": "STARLINK-36077", "line1": "1 66903U 25283AB  26128.18600286  .00012115  00000+0  42013-3 0  9996", "line2": "2 66903  53.1591 107.7851 0001710  94.1987 265.9210 15.30227161 24959"}, {"name": "STARLINK-36059", "line1": "1 66904U 25283AC  26128.18283336  .00011661  00000+0  40509-3 0  9993", "line2": "2 66904  53.1585 107.7658 0001287  93.4353 266.6795 15.30208905 24957"}, {"name": "STARLINK-36075", "line1": "1 66905U 25283AD  26128.15655767  .00012862  00000+0  44549-3 0  9994", "line2": "2 66905  53.1585 108.3130 0001127 117.3658 242.7458 15.30211388 24946"}, {"name": "STARLINK-35945", "line1": "1 66925U 25286A   26128.17962426  .00015650  00000+0  53942-3 0  9999", "line2": "2 66925  53.1593  82.2144 0001376  88.3905 271.7253 15.30197986 24526"}, {"name": "STARLINK-35942", "line1": "1 66926U 25286B   26128.15956736  .00012727  00000+0  44097-3 0  9998", "line2": "2 66926  53.1566  82.0933 0000876  63.6201 296.4890 15.30208641 24522"}, {"name": "STARLINK-35943", "line1": "1 66927U 25286C   26128.09532104  .00012741  00000+0  38747-3 0  9992", "line2": "2 66927  53.1588  82.4019 0000987  55.4278 304.6818 15.34408689 24511"}, {"name": "STARLINK-35944", "line1": "1 66928U 25286D   26128.19440381  .00026546  00000+0  90431-3 0  9995", "line2": "2 66928  53.1609  82.3134 0001494  73.9643 286.1522 15.30232199 24522"}, {"name": "STARLINK-36169", "line1": "1 66929U 25286E   26128.08159036  .00013827  00000+0  47797-3 0  9993", "line2": "2 66929  53.1599  82.3153 0001349  83.3495 276.7659 15.30209508 24514"}, {"name": "STARLINK-36206", "line1": "1 66930U 25286F   26128.19544654  .00012654  00000+0  43853-3 0  9997", "line2": "2 66930  53.1614  82.3124 0001093 104.9391 255.1731 15.30206707 24513"}, {"name": "STARLINK-36130", "line1": "1 66931U 25286G   26128.16696529  .00021552  00000+0  73692-3 0  9995", "line2": "2 66931  53.1576  82.1428 0001083  99.2687 260.8436 15.30232945 24528"}, {"name": "STARLINK-36177", "line1": "1 66932U 25286H   26128.18361267  .00017279  00000+0  52121-3 0  9991", "line2": "2 66932  53.1609  82.2429 0000887  74.9678 285.1422 15.34408902 24526"}, {"name": "STARLINK-36157", "line1": "1 66933U 25286J   26128.18173160  .00014403  00000+0  49750-3 0  9995", "line2": "2 66933  53.1592  82.2283 0001348  79.4451 280.6701 15.30198634 24522"}, {"name": "STARLINK-36153", "line1": "1 66934U 25286K   26128.15324104  .00009192  00000+0  32210-3 0  9991", "line2": "2 66934  53.1585  82.0542 0001156  87.7248 272.3886 15.30199413 24522"}, {"name": "STARLINK-36127", "line1": "1 66935U 25286L   26128.16668980  .00004506  00000+0  14448-3 0  9993", "line2": "2 66935  53.1587  82.1418 0001395  87.4825 272.1733 15.34384569  5857"}, {"name": "STARLINK-36160", "line1": "1 66936U 25286M   26128.11004955  .00023668  00000+0  70914-3 0  9995", "line2": "2 66936  53.1611  82.4899 0000427  37.8892 322.2140 15.34411401 24508"}, {"name": "STARLINK-36165", "line1": "1 66937U 25286N   26128.16668980  .00012440  00000+0  37884-3 0  9990", "line2": "2 66937  53.1606  82.3896 0001258 108.3094 123.4260 15.34388094  5863"}, {"name": "STARLINK-36155", "line1": "1 66938U 25286P   26128.16668980  .00006336  00000+0  20385-3 0  9996", "line2": "2 66938  53.1592  82.2622 0000919  87.4034 208.1481 15.33545115  5794"}, {"name": "STARLINK-36154", "line1": "1 66939U 25286Q   26128.17012058  .00011621  00000+0  40371-3 0  9997", "line2": "2 66939  53.1582  82.1596 0001087  80.2211 279.8913 15.30212379 24525"}, {"name": "STARLINK-36121", "line1": "1 66940U 25286R   26128.16273352  .00009412  00000+0  32944-3 0  9996", "line2": "2 66940  53.1583  82.1148 0001224  90.6950 269.4191 15.30205450 24524"}, {"name": "STARLINK-36088", "line1": "1 66941U 25286S   26128.15414481  .00019690  00000+0  59211-3 0  9991", "line2": "2 66941  53.1602  82.0561 0000454  98.8615 261.2439 15.34412809 24524"}, {"name": "STARLINK-36100", "line1": "1 66942U 25286T   26128.15639641  .00021712  00000+0  74337-3 0  9993", "line2": "2 66942  53.1578  82.0751 0001464  71.7480 288.3680 15.30186544 24450"}, {"name": "STARLINK-36109", "line1": "1 66943U 25286U   26128.14373786  .00010317  00000+0  35990-3 0  9999", "line2": "2 66943  53.1595  81.9908 0001167  92.7137 267.3997 15.30206581 24456"}, {"name": "STARLINK-36112", "line1": "1 66944U 25286V   26128.16256466  .00013427  00000+0  40776-3 0  9990", "line2": "2 66944  53.1599  82.1100 0001867  89.4731 270.6486 15.34403209 24526"}, {"name": "STARLINK-36110", "line1": "1 66945U 25286W   26128.16668980  .00007667  00000+0  24424-3 0  9990", "line2": "2 66945  53.1608  82.4482 0001131  70.2431 131.4621 15.33544598  5758"}, {"name": "STARLINK-36115", "line1": "1 66946U 25286X   26128.18477955  .00229391  00000+0  74250-2 0  9994", "line2": "2 66946  53.1595  82.2444 0001961 150.8492 209.2618 15.30616490 24527"}, {"name": "STARLINK-36089", "line1": "1 66947U 25286Y   26128.16668980  .00000485  00000+0  26107-4 0  9994", "line2": "2 66947  53.1602  82.4774 0001258  62.2374 123.0638 15.33515533  5757"}, {"name": "STARLINK-36116", "line1": "1 66948U 25286Z   26128.17855742  .00015718  00000+0  54132-3 0  9993", "line2": "2 66948  53.1591  82.2029 0001640 142.5458 217.5657 15.30222542 24513"}, {"name": "STARLINK-36096", "line1": "1 66949U 25286AA  26128.15006752  .00011960  00000+0  41512-3 0  9994", "line2": "2 66949  53.1591  82.0304 0001216 107.4312 252.6822 15.30211575 24525"}, {"name": "STARLINK-36111", "line1": "1 66950U 25286AB  26128.15624536  .00025356  00000+0  75838-3 0  9994", "line2": "2 66950  53.1580  82.0691 0001216  96.4142 263.6999 15.34427345 24527"}, {"name": "STARLINK-35999", "line1": "1 66951U 25286AC  26128.18276322 -.00001256  00000+0 -30307-4 0  9992", "line2": "2 66951  53.1593  82.2302 0000998  76.2220 283.8892 15.30195933 24529"}, {"name": "STARLINK-36122", "line1": "1 66952U 25286AD  26128.11217125  .00016617  00000+0  50178-3 0  9994", "line2": "2 66952  53.1603  82.5044 0001447  86.3087 273.8081 15.34404012 24514"}, {"name": "STARLINK-35887", "line1": "1 66959U 25288A   26128.15831500  .00018817  00000+0  69111-3 0  9997", "line2": "2 66959  43.0031  47.5021 0001499 258.9880 101.0803 15.27601008 24380"}, {"name": "STARLINK-35879", "line1": "1 66960U 25288B   26128.10706368  .00014707  00000+0  54257-3 0  9996", "line2": "2 66960  43.0025  47.9735 0001435 265.8827  94.1861 15.27600880 24371"}, {"name": "STARLINK-35761", "line1": "1 66961U 25288C   26127.94160304  .00010764  00000+0  40003-3 0  9995", "line2": "2 66961  42.9998  48.4486 0001144 272.1183  87.9537 15.27586199 24355"}, {"name": "STARLINK-35874", "line1": "1 66962U 25288D   26128.19942546  .00035497  00000+0  12909-2 0  9993", "line2": "2 66962  43.0008  47.8049 0001261 271.6123  88.4584 15.27640433 24389"}, {"name": "STARLINK-36133", "line1": "1 66963U 25288E   26128.10835130  .00018912  00000+0  69468-3 0  9991", "line2": "2 66963  43.0037  47.9809 0001484 270.5545  89.5136 15.27595288 24371"}, {"name": "STARLINK-36104", "line1": "1 66964U 25288F   26128.12505591  .00018123  00000+0  66610-3 0  9999", "line2": "2 66964  43.0021  48.1132 0001409 261.4895  98.5797 15.27598039 24371"}, {"name": "STARLINK-36067", "line1": "1 66965U 25288G   26128.14930428  .00037826  00000+0  13745-2 0  9994", "line2": "2 66965  42.9960  47.4330 0002089 233.9868 126.0790 15.27640698 24383"}, {"name": "STARLINK-36139", "line1": "1 66966U 25288H   26128.15060743  .00019622  00000+0  72031-3 0  9998", "line2": "2 66966  43.0029  47.4372 0001268 278.8757  81.1951 15.27596667 24387"}, {"name": "STARLINK-36136", "line1": "1 66967U 25288J   26128.16089770  .00021926  00000+0  80416-3 0  9997", "line2": "2 66967  43.0034  47.5165 0001492 258.2558 101.8126 15.27569809 24387"}]